NORAD_CAT_ID,OBJECT_NAME,OBJECT_TYPE,EPOCH,MEAN_MOTION,ECCENTRICITY,INCLINATION,RA_OF_ASC_NODE,ARG_OF_PERICENTER,MEAN_ANOMALY,BSTAR,MEAN_MOTION_DOT,MEAN_MOTION_DDOT,TLE_LINE0,TLE_LINE1,TLE_LINE2,SEMIMAJOR_AXIS,PERIOD,APOGEE,PERIGEE,DECAYED
54059.0,STARLINK-5173,PAYLOAD,2023-04-12 04:50:01,15.0883814,0.0001244,53.2171,73.8646,97.5167,262.5966,0.00033471,5.043e-05,0.0,0 STARLINK-5173,1 54059U 22136J   23102.20140389  .00005043  00000-0  33471-3 0  9995,2 54059  53.2171  73.8646 0001244  97.5167 262.5966 15.08838140 26927,6917.886,95.438,540.612,538.89,0.0
54059.0,STARLINK-5173,PAYLOAD,2023-04-12 08:00:47,15.08841547,0.000126,53.2173,73.2692,97.8128,262.3007,0.00052845,8.133e-05,0.0,0 STARLINK-5173,1 54059U 22136J   23102.33388400  .00008133  00000-0  52845-3 0  9996,2 54059  53.2173  73.2692 0001260  97.8128 262.3007 15.08841547 26460,6917.876,95.437,540.612,538.869,0.0
54059.0,STARLINK-5173,PAYLOAD,2023-04-13 06:16:11,15.0884108,0.000127,53.217,69.1064,98.5621,261.5516,0.00042682,6.512e-05,0.0,0 STARLINK-5173,1 54059U 22136J   23103.26124878  .00006512  00000-0  42682-3 0  9993,2 54059  53.2170  69.1064 0001270  98.5621 261.5516 15.08841080 26605,6917.877,95.437,540.621,538.864,0.0
54059.0,STARLINK-5173,PAYLOAD,2023-04-13 14:13:07,15.0884097,0.0001252,53.2179,67.6206,99.5986,260.5148,0.00030335,4.543e-05,0.0,0 STARLINK-5173,1 54059U 22136J   23103.59244941  .00004543  00000-0  30335-3 0  9997,2 54059  53.2179  67.6206 0001252  99.5986 260.5148 15.08840970 27136,6917.877,95.437,540.609,538.876,0.0
54059.0,STARLINK-5173,PAYLOAD,2023-04-14 04:31:35,15.08847496,0.0001257,53.2181,64.9446,101.7177,258.3956,0.00012413,1.689e-05,0.0,0 STARLINK-5173,1 54059U 22136J   23104.18860606  .00001689  00000-0  12413-3 0  9990,2 54059  53.2181  64.9446 0001257 101.7177 258.3956 15.08847496 26746,6917.857,95.437,540.592,538.853,0.0
54059.0,STARLINK-5173,PAYLOAD,2023-04-15 04:22:22,15.08850033,0.0001275,53.2176,60.4853,102.2879,257.8256,0.000225,3.296e-05,0.0,0 STARLINK-5173,1 54059U 22136J   23105.18220458  .00003296  00000-0  22500-3 0  9990,2 54059  53.2176  60.4853 0001275 102.2879 257.8256 15.08850033 26892,6917.85,95.437,540.597,538.833,0.0
54059.0,STARLINK-5173,PAYLOAD,2023-04-16 04:13:09,15.08841068,0.000143,53.2181,56.0227,99.9781,260.1372,4.2492e-05,3.88e-06,0.0,0 STARLINK-5173,1 54059U 22136J   23106.17580917  .00000388  00000-0  42492-4 0  9991,2 54059  53.2181  56.0227 0001430  99.9781 260.1372 15.08841068 27526,6917.877,95.437,540.731,538.753,0.0
54059.0,STARLINK-5173,PAYLOAD,2023-04-16 05:48:32,15.08842759,0.0001321,53.2178,55.7245,82.2008,277.9134,3.6158e-05,2.88e-06,0.0,0 STARLINK-5173,1 54059U 22136J   23106.24204824  .00000288  00000-0  36158-4 0  9990,2 54059  53.2178  55.7245 0001321  82.2008 277.9134 15.08842759 27052,6917.872,95.437,540.651,538.823,0.0
54059.0,STARLINK-5173,PAYLOAD,2023-04-17 05:39:20,15.08844158,0.0001406,53.2182,51.2613,86.5935,273.5218,6.2879e-05,7.13e-06,0.0,0 STARLINK-5173,1 54059U 22136J   23107.23564998  .00000713  00000-0  62879-4 0  9993,2 54059  53.2182  51.2613 0001406  86.5935 273.5218 15.08844158 27686,6917.868,95.437,540.705,538.76,0.0
54059.0,STARLINK-5173,PAYLOAD,2023-04-18 05:30:06,15.08852438,0.0001286,53.218,46.801,95.1689,264.945,0.00028649,4.276e-05,0.0,0 STARLINK-5173,1 54059U 22136J   23108.22924596  .00004276  00000-0  28649-3 0  9991,2 54059  53.2180  46.8010 0001286  95.1689 264.9450 15.08852438 27359,6917.842,95.437,540.597,538.818,0.0
54059.0,STARLINK-5173,PAYLOAD,2023-04-19 05:20:54,15.0884604,0.0001255,53.2184,42.3435,73.066,287.0469,0.00012369,1.682e-05,0.0,0 STARLINK-5173,1 54059U 22136J   23109.22285393  .00001682  00000-0  12369-3 0  9997,2 54059  53.2184  42.3435 0001255  73.0660 287.0469 15.08846040 27982,6917.862,95.437,540.595,538.859,0.0
54059.0,STARLINK-5173,PAYLOAD,2023-04-20 05:11:40,15.08852785,0.0001322,53.219,37.8801,89.2343,270.88,0.0001511,2.118e-05,0.0,0 STARLINK-5173,1 54059U 22136J   23110.21644655  .00002118  00000-0  15110-3 0  9990,2 54059  53.2190  37.8801 0001322  89.2343 270.8800 15.08852785 27653,6917.841,95.437,540.621,538.792,0.0
54059.0,STARLINK-5173,PAYLOAD,2023-04-21 01:51:43,15.08826781,6.91e-05,53.2181,34.0164,71.5861,288.5206,-9.6492e-05,-1.822e-05,0.0,0 STARLINK-5173,1 54059U 22136J   23111.07758508 -.00001822  00000-0 -96492-4 0  9994,2 54059  53.2181  34.0164 0000691  71.5861 288.5206 15.08826781 28262,6917.921,95.438,540.264,539.308,0.0
54059.0,STARLINK-5173,PAYLOAD,2023-04-21 11:24:01,15.08838194,0.0001039,53.2189,32.2336,91.0567,269.0544,5.9457e-05,6.59e-06,0.0,0 STARLINK-5173,1 54059U 22136J   23111.47502123  .00000659  00000-0  59457-4 0  9993,2 54059  53.2189  32.2336 0001039  91.0567 269.0544 15.08838194 27841,6917.886,95.438,540.47,539.032,0.0
54059.0,STARLINK-5173,PAYLOAD,2023-04-21 19:20:57,15.08842206,0.0001049,53.2186,30.7471,103.1897,256.9213,3.2389e-05,2.28e-06,0.0,0 STARLINK-5173,1 54059U 22136J   23111.80622059  .00000228  00000-0  32389-4 0  9998,2 54059  53.2186  30.7471 0001049 103.1897 256.9213 15.08842206 27895,6917.874,95.437,540.464,539.013,0.0
54059.0,STARLINK-5173,PAYLOAD,2023-04-22 03:17:52,15.08857376,0.0001279,53.2183,29.2601,127.1126,232.9983,0.00051104,7.858e-05,0.0,0 STARLINK-5173,1 54059U 22136J   23112.13741368  .00007858  00000-0  51104-3 0  9991,2 54059  53.2183  29.2601 0001279 127.1126 232.9983 15.08857376 28428,6917.827,95.436,540.577,538.807,0.0
54059.0,STARLINK-5173,PAYLOAD,2023-04-22 17:36:21,15.0884971,0.0001233,53.2182,26.584,97.2042,262.909,0.00033115,4.988e-05,0.0,0 STARLINK-5173,1 54059U 22136J   23112.73357792  .00004988  00000-0  33115-3 0  9994,2 54059  53.2182  26.5840 0001233  97.2042 262.9090 15.08849710 28038,6917.851,95.437,540.569,538.863,0.0
54059.0,STARLINK-5173,PAYLOAD,2023-04-23 01:33:16,15.08834712,7.53e-05,53.2177,25.0953,145.529,214.5751,-0.00013611,-2.453e-05,0.0,0 STARLINK-5173,1 54059U 22136J   23113.06477871 -.00002453  00000-0 -13611-3 0  9998,2 54059  53.2177  25.0953 0000753 145.5290 214.5751 15.08834712 28560,6917.897,95.438,540.282,539.241,0.0
54059.0,STARLINK-5173,PAYLOAD,2023-04-24 02:59:26,15.08880389,6.51e-05,53.2172,20.3402,120.5048,239.6008,0.0011274,0.0001772,0.0,0 STARLINK-5173,1 54059U 22136J   23114.12460703  .00017720  00000-0  11274-2 0  9995,2 54059  53.2172  20.3402 0000651 120.5048 239.6008 15.08880389 28725,6917.757,95.435,540.072,539.172,0.0
54059.0,STARLINK-5173,PAYLOAD,2023-04-24 23:39:25,15.08887612,8.52e-05,53.2169,16.4748,83.189,276.9199,0.00064526,0.0001001,0.0,0 STARLINK-5173,1 54059U 22136J   23114.98571207  .00010010  00000-0  64526-3 0  9995,2 54059  53.2169  16.4748 0000852  83.1890 276.9199 15.08887612 28857,6917.735,95.435,540.189,539.01,0.0
54059.0,STARLINK-5173,PAYLOAD,2023-04-26 04:16:25,15.08786856,9.09e-05,53.2168,11.1238,86.3464,273.7632,-0.0010356,-0.00016707,0.0,0 STARLINK-5173,1 54059U 22136J   23116.17806931 -.00016707  00000-0 -10356-2 0  9995,2 54059  53.2168  11.1238 0000909  86.3464 273.7632 15.08786856 28559,6918.043,95.441,540.537,539.279,0.0
54059.0,STARLINK-5173,PAYLOAD,2023-04-27 02:31:48,15.08839572,6.43e-05,53.2153,6.9573,81.6548,278.4517,3.7098e-05,3.03e-06,0.0,0 STARLINK-5173,1 54059U 22136J   23117.10541796  .00000303  00000-0  37098-4 0  9991,2 54059  53.2153   6.9573 0000643  81.6548 278.4517 15.08839572 29170,6917.882,95.438,540.192,539.302,0.0
54059.0,STARLINK-5173,PAYLOAD,2023-04-28 08:44:08,15.08851672,0.0001018,53.2178,1.3057,64.5349,295.5749,0.00037426,5.675e-05,0.0,0 STARLINK-5173,1 54059U 22136J   23118.36398750  .00005675  00000-0  37426-3 0  9991,2 54059  53.2178   1.3057 0001018  64.5349 295.5749 15.08851672 29362,6917.845,95.437,540.414,539.005,0.0
54059.0,STARLINK-5173,PAYLOAD,2023-04-29 00:37:59,15.08841789,5.96e-05,53.2167,358.3357,82.8576,277.2484,-8.312e-05,-1.61e-05,0.0,0 STARLINK-5173,1 54059U 22136J   23119.02638555 -.00001610  00000-0 -83120-4 0  9995,2 54059  53.2167 358.3357 0000596  82.8576 277.2484 15.08841789 29465,6917.875,95.437,540.152,539.328,0.0
54059.0,STARLINK-5173,PAYLOAD,2023-04-30 00:28:46,15.08851884,5.95e-05,53.217,353.8757,75.9391,284.1668,6.2259e-05,7.04e-06,0.0,0 STARLINK-5173,1 54059U 22136J   23120.01997879  .00000704  00000-0  62259-4 0  9994,2 54059  53.2170 353.8757 0000595  75.9391 284.1668 15.08851884 29615,6917.844,95.437,540.121,539.297,0.0
54059.0,STARLINK-5173,PAYLOAD,2023-04-30 14:47:14,15.08839211,4.84e-05,53.2181,351.2026,38.2455,321.8572,0.00017488,2.497e-05,0.0,0 STARLINK-5173,1 54059U 22136J   23120.61614420  .00002497  00000-0  17488-3 0  9992,2 54059  53.2181 351.2026 0000484  38.2455 321.8572 15.08839211 29701,6917.883,95.438,540.083,539.413,0.0
54059.0,STARLINK-5173,PAYLOAD,2023-05-01 00:19:33,15.08844483,6.37e-05,53.2172,349.4149,71.7047,288.4014,0.00017284,2.465e-05,0.0,0 STARLINK-5173,1 54059U 22136J   23121.01358379  .00002465  00000-0  17284-3 0  9994,2 54059  53.2172 349.4149 0000637  71.7047 288.4014 15.08844483 29284,6917.867,95.437,540.172,539.291,0.0
54059.0,STARLINK-5173,PAYLOAD,2023-05-01 20:59:34,15.08846541,6.2e-05,53.2168,345.5488,76.2481,283.858,7.3756e-05,8.87e-06,0.0,0 STARLINK-5173,1 54059U 22136J   23121.87470290  .00000887  00000-0  73756-4 0  9998,2 54059  53.2168 345.5488 0000620  76.2481 283.8580 15.08846541 29415,6917.86,95.437,540.154,539.296,0.0
54059.0,STARLINK-5173,PAYLOAD,2023-05-01 22:34:57,15.0884894,6.4e-05,53.2169,345.2514,78.1881,281.9182,0.0001454,2.028e-05,0.0,0 STARLINK-5173,1 54059U 22136J   23121.94094209  .00002028  00000-0  14540-3 0  9992,2 54059  53.2169 345.2514 0000640  78.1881 281.9182 15.08848940 29906,6917.853,95.437,540.161,539.275,0.0
54059.0,STARLINK-5173,PAYLOAD,2023-05-02 00:10:20,15.08851233,6.73e-05,53.2168,344.9539,96.5569,263.55,0.00025179,3.723e-05,0.0,0 STARLINK-5173,1 54059U 22136J   23122.00718124  .00003723  00000-0  25179-3 0  9992,2 54059  53.2168 344.9539 0000673  96.5569 263.5500 15.08851233 29438,6917.846,95.437,540.177,539.245,0.0
